{
  "type": "FeatureCollection",
  "features": [
    {
      "type": "Feature",
      "properties": {
        "norad_id": 55268,
        "name": "GPS BIII-6  (PRN 28)",
        "group": "gnss",
        "lat": -50.36047295983202,
        "lon": 98.21183716561406,
        "alt_km": 20184.680362759565,
        "timestamp": "2025-12-17T09:00:17.393473+00:00",
        "meta_object_name": "GPS BIII-6  (PRN 28)",
        "meta_object_id": "2023-009A",
        "meta_epoch": "2025-12-13T12:37:03.021024",
        "meta_mean_motion": 2.00555696,
        "meta_eccentricity": 0.00037118,
        "meta_inclination": 55.1051,
        "meta_ra_of_asc_node": 155.8142,
        "meta_arg_of_pericenter": 357.4368,
        "meta_mean_anomaly": 33.2544,
        "meta_ephemeris_type": 0,
        "meta_classification_type": "U",
        "meta_norad_cat_id": 55268,
        "meta_element_set_no": 999,
        "meta_rev_at_epoch": 2152,
        "meta_bstar": 0,
        "meta_mean_motion_dot": 1e-06,
        "meta_mean_motion_ddot": 0,
        "tle_line1": "1 55268U 23009A   25347.52572941  .00000100  00000+0  00000+0 0  9995",
        "tle_line2": "2 55268  55.1051 155.8142 0003711 357.4368  33.2544  2.00555696 21528"
      },
      "geometry": {
        "type": "Point",
        "coordinates": [
          98.21183716561406,
          -50.36047295983202
        ]
      }
    },
    {
      "type": "Feature",
      "properties": {
        "norad_id": 56564,
        "name": "BEIDOU-3 G4 (C62)",
        "group": "gnss",
        "lat": 0.8070409134786278,
        "lon": 21.35584561526618,
        "alt_km": 35795.999825612715,
        "timestamp": "2025-12-17T09:00:17.393485+00:00",
        "meta_object_name": "BEIDOU-3 G4 (C62)",
        "meta_object_id": "2023-066A",
        "meta_epoch": "2025-12-16T19:15:19.678176",
        "meta_mean_motion": 1.00271768,
        "meta_eccentricity": 0.00027882,
        "meta_inclination": 0.8061,
        "meta_ra_of_asc_node": 302.3763,
        "meta_arg_of_pericenter": 227.8165,
        "meta_mean_anomaly": 4.39,
        "meta_ephemeris_type": 0,
        "meta_classification_type": "U",
        "meta_norad_cat_id": 56564,
        "meta_element_set_no": 999,
        "meta_rev_at_epoch": 956,
        "meta_bstar": 0,
        "meta_mean_motion_dot": -8.6e-07,
        "meta_mean_motion_ddot": 0,
        "tle_line1": "1 56564U 23066A   25350.80231109 -.00000086  00000+0  00000+0 0  9995",
        "tle_line2": "2 56564   0.8061 302.3763 0002788 227.8165   4.3900  1.00271768  9561"
      },
      "geometry": {
        "type": "Point",
        "coordinates": [
          21.35584561526618,
          0.8070409134786278
        ]
      }
    },
    {
      "type": "Feature",
      "properties": {
        "norad_id": 56759,
        "name": "NVS-01 (IRNSS-1J)",
        "group": "gnss",
        "lat": 2.578323104318924,
        "lon": -9.06273488995578,
        "alt_km": 35780.8845850876,
        "timestamp": "2025-12-17T09:00:17.393497+00:00",
        "meta_object_name": "NVS-01 (IRNSS-1J)",
        "meta_object_id": "2023-076A",
        "meta_epoch": "2025-12-16T17:23:45.360384",
        "meta_mean_motion": 1.00275744,
        "meta_eccentricity": 0.00088098,
        "meta_inclination": 2.6087,
        "meta_ra_of_asc_node": 251.4546,
        "meta_arg_of_pericenter": 15.389,
        "meta_mean_anomaly": 209.2167,
        "meta_ephemeris_type": 0,
        "meta_classification_type": "U",
        "meta_norad_cat_id": 56759,
        "meta_element_set_no": 999,
        "meta_rev_at_epoch": 928,
        "meta_bstar": 0,
        "meta_mean_motion_dot": -3.08e-06,
        "meta_mean_motion_ddot": 0,
        "tle_line1": "1 56759U 23076A   25350.72483056 -.00000308  00000+0  00000+0 0  9990",
        "tle_line2": "2 56759   2.6087 251.4546 0008809  15.3890 209.2167  1.00275744  9281"
      },
      "geometry": {
        "type": "Point",
        "coordinates": [
          -9.06273488995578,
          2.578323104318924
        ]
      }
    },
    {
      "type": "Feature",
      "properties": {
        "norad_id": 57517,
        "name": "COSMOS 2569 (703K)",
        "group": "gnss",
        "lat": 28.501359454666535,
        "lon": -115.75206600489615,
        "alt_km": 19146.8434620005,
        "timestamp": "2025-12-17T09:00:17.393511+00:00",
        "meta_object_name": "COSMOS 2569 (703K)",
        "meta_object_id": "2023-114A",
        "meta_epoch": "2025-12-15T18:34:28.815168",
        "meta_mean_motion": 2.13104018,
        "meta_eccentricity": 0.00106247,
        "meta_inclination": 65.1958,
        "meta_ra_of_asc_node": 78.8109,
        "meta_arg_of_pericenter": 286.9664,
        "meta_mean_anomaly": 72.9318,
        "meta_ephemeris_type": 0,
        "meta_classification_type": "U",
        "meta_norad_cat_id": 57517,
        "meta_element_set_no": 999,
        "meta_rev_at_epoch": 1835,
        "meta_bstar": 0,
        "meta_mean_motion_dot": -5.6e-07,
        "meta_mean_motion_ddot": 0,
        "tle_line1": "1 57517U 23114A   25349.77394462 -.00000056  00000+0  00000+0 0  9991",
        "tle_line2": "2 57517  65.1958  78.8109 0010624 286.9664  72.9318  2.13104018 18355"
      },
      "geometry": {
        "type": "Point",
        "coordinates": [
          -115.75206600489615,
          28.501359454666535
        ]
      }
    },
    {
      "type": "Feature",
      "properties": {
        "norad_id": 58654,
        "name": "BEIDOU-3 M28 (C50)",
        "group": "gnss",
        "lat": 50.88599405958502,
        "lon": 125.78103266947933,
        "alt_km": 21528.770065318306,
        "timestamp": "2025-12-17T09:00:17.393522+00:00",
        "meta_object_name": "BEIDOU-3 M28 (C50)",
        "meta_object_id": "2023-207A",
        "meta_epoch": "2025-12-15T15:50:05.112096",
        "meta_mean_motion": 1.8622982,
        "meta_eccentricity": 0.00025263,
        "meta_inclination": 55.587,
        "meta_ra_of_asc_node": 68.5025,
        "meta_arg_of_pericenter": 270.8998,
        "meta_mean_anomaly": 89.0909,
        "meta_ephemeris_type": 0,
        "meta_classification_type": "U",
        "meta_norad_cat_id": 58654,
        "meta_element_set_no": 999,
        "meta_rev_at_epoch": 1342,
        "meta_bstar": 0,
        "meta_mean_motion_dot": -8.4e-07,
        "meta_mean_motion_ddot": 0,
        "tle_line1": "1 58654U 23207A   25349.65978139 -.00000084  00000+0  00000+0 0  9994",
        "tle_line2": "2 58654  55.5870  68.5025 0002526 270.8998  89.0909  1.86229820 13427"
      },
      "geometry": {
        "type": "Point",
        "coordinates": [
          125.78103266947933,
          50.88599405958502
        ]
      }
    },
    {
      "type": "Feature",
      "properties": {
        "norad_id": 58655,
        "name": "BEIDOU-3 M26 (C48)",
        "group": "gnss",
        "lat": -21.012948405355402,
        "lon": -96.31687232084386,
        "alt_km": 21523.971094673278,
        "timestamp": "2025-12-17T09:00:17.393533+00:00",
        "meta_object_name": "BEIDOU-3 M26 (C48)",
        "meta_object_id": "2023-207B",
        "meta_epoch": "2025-12-15T23:51:52.176960",
        "meta_mean_motion": 1.86231301,
        "meta_eccentricity": 0.00039507,
        "meta_inclination": 55.5893,
        "meta_ra_of_asc_node": 68.4775,
        "meta_arg_of_pericenter": 256.9,
        "meta_mean_anomaly": 103.0764,
        "meta_ephemeris_type": 0,
        "meta_classification_type": "U",
        "meta_norad_cat_id": 58655,
        "meta_element_set_no": 999,
        "meta_rev_at_epoch": 1341,
        "meta_bstar": 0,
        "meta_mean_motion_dot": -8.2e-07,
        "meta_mean_motion_ddot": 0,
        "tle_line1": "1 58655U 23207B   25349.99435390 -.00000082  00000+0  00000+0 0  9997",
        "tle_line2": "2 58655  55.5893  68.4775 0003950 256.9000 103.0764  1.86231301 13417"
      },
      "geometry": {
        "type": "Point",
        "coordinates": [
          -96.31687232084386,
          -21.012948405355402
        ]
      }
    },
    {
      "type": "Feature",
      "properties": {
        "norad_id": 59598,
        "name": "GSAT0225 (GALILEO 29)",
        "group": "gnss",
        "lat": -46.9441973355408,
        "lon": -25.344942711040392,
        "alt_km": 23224.335884144803,
        "timestamp": "2025-12-17T09:00:17.393544+00:00",
        "meta_object_name": "GSAT0225 (GALILEO 29)",
        "meta_object_id": "2024-079A",
        "meta_epoch": "2025-12-16T09:22:38.225280",
        "meta_mean_motion": 1.70475011,
        "meta_eccentricity": 0.00021396,
        "meta_inclination": 55.0038,
        "meta_ra_of_asc_node": 106.1932,
        "meta_arg_of_pericenter": 182.0305,
        "meta_mean_anomaly": 176.7742,
        "meta_ephemeris_type": 0,
        "meta_classification_type": "U",
        "meta_norad_cat_id": 59598,
        "meta_element_set_no": 999,
        "meta_rev_at_epoch": 1019,
        "meta_bstar": 0,
        "meta_mean_motion_dot": -1e-07,
        "meta_mean_motion_ddot": 0,
        "tle_line1": "1 59598U 24079A   25350.39072020 -.00000010  00000+0  00000+0 0  9996",
        "tle_line2": "2 59598  55.0038 106.1932 0002139 182.0305 176.7742  1.70475011 10196"
      },
      "geometry": {
        "type": "Point",
        "coordinates": [
          -25.344942711040392,
          -46.9441973355408
        ]
      }
    }
  ]
}